NORAD_CAT_ID,OBJECT_NAME,OBJECT_TYPE,EPOCH,MEAN_MOTION,ECCENTRICITY,INCLINATION,RA_OF_ASC_NODE,ARG_OF_PERICENTER,MEAN_ANOMALY,BSTAR,MEAN_MOTION_DOT,MEAN_MOTION_DDOT,TLE_LINE0,TLE_LINE1,TLE_LINE2,SEMIMAJOR_AXIS,PERIOD,APOGEE,PERIGEE,DECAYED
55304.0,STARLINK-5318,PAYLOAD,2023-02-04 10:00:00,15.75415832,0.000377,70.0001,24.2892,255.7385,27.5846,-0.0060283,-0.00831371,0.0,0 STARLINK-5318,1 55304U 23010AM  23035.41667824 -.00831371  00000-0 -60283-2 0  9990,2 55304  70.0001  24.2892 0003770 255.7385  27.5846 15.75415832  3002,6721.585,91.404,345.984,340.916,0.0
55304.0,STARLINK-5318,PAYLOAD,2023-02-04 14:00:01,15.75148481,0.0003545,69.9993,23.8154,263.523,244.6552,-0.0064625,-0.00876086,0.0,0 STARLINK-5318,1 55304U 23010AM  23035.58334491 -.00876086  00000-0 -64625-2 0  9995,2 55304  69.9993  23.8154 0003545 263.5230 244.6552 15.75148481  1301,6722.346,91.42,346.594,341.828,0.0
55304.0,STARLINK-5318,PAYLOAD,2023-02-04 22:00:00,15.74519295,0.0003509,70.0001,22.8728,262.2941,335.0982,-0.0062837,-0.00833023,0.0,0 STARLINK-5318,1 55304U 23010AM  23035.91667824 -.00833023  00000-0 -62837-2 0  9998,2 55304  70.0001  22.8728 0003509 262.2941 335.0982 15.74519295  1301,6724.136,91.456,348.361,343.642,0.0
55304.0,STARLINK-5318,PAYLOAD,2023-02-05 06:00:00,15.73919528,0.0003836,70.0001,21.9293,255.4542,70.4216,-0.0064263,-0.00830442,0.0,0 STARLINK-5318,1 55304U 23010AM  23036.25001157 -.00830442  00000-0 -64263-2 0  9994,2 55304  70.0001  21.9293 0003836 255.4542  70.4216 15.73919528  3137,6725.845,91.491,350.29,345.13,0.0
55304.0,STARLINK-5318,PAYLOAD,2023-02-05 14:00:01,15.73332753,0.0003494,69.9966,20.9787,268.2028,145.5412,-0.006847,-0.00859529,0.0,0 STARLINK-5318,1 55304U 23010AM  23036.58335648 -.00859529  00000-0 -68470-2 0  9996,2 55304  69.9966  20.9787 0003494 268.2028 145.5412 15.73332753  1300,6727.517,91.525,351.732,347.031,0.0
55304.0,STARLINK-5318,PAYLOAD,2023-02-05 22:00:00,15.72745487,0.0003448,69.9972,20.0375,263.2172,237.4972,-0.006929,-0.00849201,0.0,0 STARLINK-5318,1 55304U 23010AM  23036.91667824 -.00849201  00000-0 -69290-2 0  9994,2 55304  69.9972  20.0375 0003448 263.2172 237.4972 15.72745487  1308,6729.191,91.56,353.377,348.736,0.0
55304.0,STARLINK-5318,PAYLOAD,2023-02-06 06:00:00,15.72095638,0.0003544,69.9974,19.0968,268.5348,318.5373,-0.0065831,-0.00790337,0.0,0 STARLINK-5318,1 55304U 23010AM  23037.25001157 -.00790337  00000-0 -65831-2 0  9995,2 55304  69.9974  19.0968 0003544 268.5348 318.5373 15.72095638  3298,6731.046,91.597,355.296,350.525,0.0
55304.0,STARLINK-5318,PAYLOAD,2023-02-06 14:00:01,15.71550267,0.0003662,69.9972,18.1569,266.4018,46.266,-0.0075394,-0.0087547,0.0,0 STARLINK-5318,1 55304U 23010AM  23037.58334491 -.00875470  00000-0 -75394-2 0  9998,2 55304  69.9972  18.1569 0003662 266.4018  46.2660 15.71550267  1302,6732.603,91.629,356.933,352.002,0.0
55304.0,STARLINK-5318,PAYLOAD,2023-02-06 22:00:00,15.70953541,0.0003682,69.9974,17.2181,264.1166,133.4419,-0.007549,-0.00856718,0.0,0 STARLINK-5318,1 55304U 23010AM  23037.91667824 -.00856718  00000-0 -75490-2 0  9995,2 55304  69.9974  17.2181 0003682 264.1166 133.4419 15.70953541  1307,6734.308,91.664,358.652,353.693,0.0
55304.0,STARLINK-5318,PAYLOAD,2023-02-07 00:00:00,15.7081431,0.0003566,69.9977,16.9834,265.3426,243.329,-0.0078465,-0.00882456,0.0,0 STARLINK-5318,1 55304U 23010AM  23038.00001157 -.00882456  00000-0 -78465-2 0  9990,2 55304  69.9977  16.9834 0003566 265.3426 243.3290 15.70814310  3416,6734.705,91.672,358.972,354.169,0.0
55304.0,STARLINK-5318,PAYLOAD,2023-02-07 08:00:01,15.69983499,0.0003594,69.9984,16.0456,272.1353,320.5717,-0.00067885,-0.00081258,0.0,0 STARLINK-5318,1 55304U 23010AM  23038.33334491 -.00081258  00000-0 -67885-3 0  9992,2 55304  69.9984  16.0456 0003594 272.1353 320.5717 15.69983499  3461,6737.081,91.721,361.368,356.525,0.0
55304.0,STARLINK-5318,PAYLOAD,2023-02-07 14:00:01,15.69956904,0.0003508,69.9988,15.3421,267.3353,297.9023,-0.00065603,-0.00078472,0.0,0 STARLINK-5318,1 55304U 23010AM  23038.58334491 -.00078472  00000-0 -65603-3 0  9999,2 55304  69.9988  15.3421 0003508 267.3353 297.9023 15.69956904  1309,6737.157,91.722,361.386,356.659,0.0
55304.0,STARLINK-5318,PAYLOAD,2023-02-07 22:00:00,15.6993814,0.0003572,70.0003,14.4049,261.4973,27.0745,-2.4935e-05,-3.212e-05,0.0,0 STARLINK-5318,1 55304U 23010AM  23038.91667824 -.00003212  00000-0 -24935-4 0  9999,2 55304  70.0003  14.4049 0003572 261.4973  27.0745 15.69938140  1305,6737.211,91.723,361.483,356.669,0.0
55304.0,STARLINK-5318,PAYLOAD,2023-02-08 00:00:00,15.6997156,0.0003557,70.0005,14.1705,263.2976,136.102,-0.00063768,-0.00076349,0.0,0 STARLINK-5318,1 55304U 23010AM  23039.00001157 -.00076349  00000-0 -63768-3 0  9998,2 55304  70.0005  14.1705 0003557 263.2976 136.1020 15.69971560  3560,6737.115,91.721,361.377,356.584,0.0
55304.0,STARLINK-5318,PAYLOAD,2023-02-08 14:00:01,15.69904489,0.0003364,70.0005,12.5304,272.3838,182.8754,-0.0001108,-0.00013503,0.0,0 STARLINK-5318,1 55304U 23010AM  23039.58334491 -.00013503  00000-0 -11080-3 0  9994,2 55304  70.0005  12.5304 0003364 272.3838 182.8754 15.69904489  1309,6737.307,91.725,361.439,356.906,0.0
55304.0,STARLINK-5318,PAYLOAD,2023-02-08 16:00:00,15.69865756,0.0003352,70.0007,12.2962,270.8076,295.2893,0.00065019,0.00078512,0.0,0 STARLINK-5318,1 55304U 23010AM  23039.66667824  .00078512  00000-0  65019-3 0  9992,2 55304  70.0007  12.2962 0003352 270.8076 295.2893 15.69865756  3670,6737.418,91.728,361.541,357.025,0.0
55304.0,STARLINK-5318,PAYLOAD,2023-02-08 22:00:00,15.69912845,0.0003582,70.0008,11.5936,254.0594,284.533,0.0003004,0.00036048,0.0,0 STARLINK-5318,1 55304U 23010AM  23039.91667824  .00036048  00000-0  30040-3 0  9994,2 55304  70.0008  11.5936 0003582 254.0594 284.5330 15.69912845  1305,6737.283,91.725,361.562,356.735,0.0
55304.0,STARLINK-5318,PAYLOAD,2023-02-09 08:00:01,15.69903852,0.0003481,70.0004,10.4219,268.0868,104.6938,0.00016543,0.00019709,0.0,0 STARLINK-5318,1 55304U 23010AM  23040.33334491  .00019709  00000-0  16543-3 0  9990,2 55304  70.0004  10.4219 0003481 268.0868 104.6938 15.69903852  3777,6737.309,91.725,361.519,356.829,0.0
55304.0,STARLINK-5318,PAYLOAD,2023-02-09 12:00:00,15.69929738,0.0003479,70.0001,9.9533,266.9676,327.4681,-0.00034091,-0.00041015,0.0,0 STARLINK-5318,1 55304U 23010AM  23040.50001157 -.00041015  00000-0 -34091-3 0  9994,2 55304  70.0001   9.9533 0003479 266.9676 327.4681 15.69929738  1305,6737.235,91.724,361.444,356.756,0.0
55304.0,STARLINK-5318,PAYLOAD,2023-02-09 22:00:00,15.69915499,0.0003564,70.0006,8.7818,258.3229,170.2323,0.00031502,0.00037824,0.0,0 STARLINK-5318,1 55304U 23010AM  23040.91667824  .00037824  00000-0  31502-3 0  9993,2 55304  70.0006   8.7818 0003564 258.3229 170.2323 15.69915499  3866,6737.276,91.725,361.542,356.74,0.0
55304.0,STARLINK-5318,PAYLOAD,2023-02-10 04:00:00,15.69929498,0.0003556,70.0007,8.079,264.1168,136.9477,0.00011174,0.00013248,0.0,0 STARLINK-5318,1 55304U 23010AM  23041.16667824  .00013248  00000-0  11174-3 0  9998,2 55304  70.0007   8.0790 0003556 264.1168 136.9477 15.69929498  1307,6737.236,91.724,361.496,356.705,0.0
55304.0,STARLINK-5318,PAYLOAD,2023-02-10 18:00:00,15.69866992,0.0003468,70.0006,6.439,271.5929,185.3603,0.00094953,0.0011527,0.0,0 STARLINK-5318,1 55304U 23010AM  23041.75001157  .00115270  00000-0  94953-3 0  9998,2 55304  70.0006   6.4390 0003468 271.5929 185.3603 15.69866992  3998,6737.415,91.728,361.616,356.943,0.0
55304.0,STARLINK-5318,PAYLOAD,2023-02-10 22:00:00,15.69964136,0.0003476,70.0009,5.9708,271.3551,47.2089,-0.00029524,-0.00035622,0.0,0 STARLINK-5318,1 55304U 23010AM  23041.91667824 -.00035622  00000-0 -29524-3 0  9991,2 55304  70.0009   5.9708 0003476 271.3551  47.2089 15.69964136  1302,6737.137,91.722,361.343,356.66,0.0
55304.0,STARLINK-5318,PAYLOAD,2023-02-11 04:17:35,15.69951083,0.0003385,70.0006,5.2325,272.0499,88.0309,0.00013102,0.00015588,0.0,0 STARLINK-5318,1 55304U 23010AM  23042.17888253  .00015588  00000-0  13102-3 0  9993,2 55304  70.0006   5.2325 0003385 272.0499  88.0309 15.69951083  4066,6737.174,91.723,361.319,356.758,0.0
55304.0,STARLINK-5318,PAYLOAD,2023-02-11 08:52:50,15.69949157,0.000385,70.0004,4.6961,272.3312,87.7443,0.00011189,0.00013277,0.0,0 STARLINK-5318,1 55304U 23010AM  23042.37003135  .00013277  00000-0  11189-3 0  9999,2 55304  70.0004   4.6961 0003850 272.3312  87.7443 15.69949157  4409,6737.179,91.723,361.638,356.451,0.0
55304.0,STARLINK-5318,PAYLOAD,2023-02-12 06:17:14,15.70068879,0.0004187,70.0005,2.1881,272.294,87.7776,0.00026224,0.00031633,0.0,0 STARLINK-5318,1 55304U 23010AM  23043.26197897  .00031633  00000-0  26224-3 0  9999,2 55304  70.0005   2.1881 0004187 272.2940  87.7776 15.70068879  4239,6736.837,91.716,361.523,355.881,0.0
55304.0,STARLINK-5318,PAYLOAD,2023-02-13 14:24:10,15.69928661,0.0003309,70.0006,358.4258,266.6768,93.4049,3.6312e-05,4.156e-05,0.0,0 STARLINK-5318,1 55304U 23010AM  23044.60012432  .00004156  00000-0  36312-4 0  9999,2 55304  70.0006 358.4258 0003309 266.6768  93.4049 15.69928661  4447,6737.238,91.724,361.332,356.874,0.0
55304.0,STARLINK-5318,PAYLOAD,2023-02-13 23:34:42,15.69907196,0.0003354,70.0002,357.3502,256.0042,104.0781,-2.9556e-05,-3.762e-05,0.0,0 STARLINK-5318,1 55304U 23010AM  23044.98243115 -.00003762  00000-0 -29556-4 0  9990,2 55304  70.0002 357.3502 0003354 256.0042 104.0781 15.69907196  4500,6737.3,91.725,361.424,356.905,0.0
55304.0,STARLINK-5318,PAYLOAD,2023-02-15 06:09:44,15.6990863,0.0003321,70.0,353.7679,273.0427,87.0389,-6.6454e-05,-8.19e-05,0.0,0 STARLINK-5318,1 55304U 23010AM  23046.25676303 -.00008190  00000-0 -66454-4 0  9999,2 55304  70.0000 353.7679 0003321 273.0427  87.0389 15.69908630  4703,6737.295,91.725,361.398,356.923,0.0
55304.0,STARLINK-5318,PAYLOAD,2023-02-15 13:48:29,15.69915171,0.0003118,70.0002,352.872,268.0936,91.9903,-4.4906e-05,-5.606e-05,0.0,0 STARLINK-5318,1 55304U 23010AM  23046.57534675 -.00005606  00000-0 -44906-4 0  9996,2 55304  70.0002 352.8720 0003118 268.0936  91.9903 15.69915171  5069,6737.277,91.725,361.242,357.041,0.0
